NORAD_CAT_ID,OBJECT_NAME,OBJECT_TYPE,EPOCH,MEAN_MOTION,ECCENTRICITY,INCLINATION,RA_OF_ASC_NODE,ARG_OF_PERICENTER,MEAN_ANOMALY,BSTAR,MEAN_MOTION_DOT,MEAN_MOTION_DDOT,TLE_LINE0,TLE_LINE1,TLE_LINE2,SEMIMAJOR_AXIS,PERIOD,APOGEE,PERIGEE,DECAYED
53154.0,STARLINK-4077,PAYLOAD,2023-08-07 18:10:30,15.08833563,0.0001065,53.2155,86.0889,71.5724,288.5384,0.0011066,0.00017364,0.0,0 STARLINK-4077,1 53154U 22083Y   23219.75730055  .00017364  00000-0  11066-2 0  9999,2 53154  53.2155  86.0889 0001065  71.5724 288.5384 15.08833563 59338,6917.9,95.438,540.502,539.028,0.0
53154.0,STARLINK-4077,PAYLOAD,2023-08-08 21:12:03,15.08873227,0.0001057,53.216,81.0336,67.9245,292.1859,0.0011139,0.000175,0.0,0 STARLINK-4077,1 53154U 22083Y   23220.88336881  .00017500  00000-0  11139-2 0  9997,2 53154  53.2160  81.0336 0001057  67.9245 292.1859 15.08873227 59502,6917.779,95.435,540.375,538.913,0.0
53154.0,STARLINK-4077,PAYLOAD,2023-08-09 08:19:44,15.08864154,9.38e-05,53.2162,78.9512,67.8537,292.2554,0.00043164,6.593e-05,0.0,0 STARLINK-4077,1 53154U 22083Y   23221.34704335  .00006593  00000-0  43164-3 0  9996,2 53154  53.2162  78.9512 0000938  67.8537 292.2554 15.08864154 59574,6917.807,95.436,540.32,539.023,0.0
53154.0,STARLINK-4077,PAYLOAD,2023-08-09 16:16:40,15.08843983,0.0001025,53.2163,77.4655,80.2519,279.8589,-0.00017665,-3.098e-05,0.0,0 STARLINK-4077,1 53154U 22083Y   23221.67824539 -.00003098  00000-0 -17665-3 0  9997,2 53154  53.2163  77.4655 0001025  80.2519 279.8589 15.08843983 59626,6917.868,95.437,540.442,539.024,0.0
53154.0,STARLINK-4077,PAYLOAD,2023-08-11 00:04:22,15.08851952,0.0001077,53.2167,71.5178,91.1646,268.9469,0.00022105,3.233e-05,0.0,0 STARLINK-4077,1 53154U 22083Y   23223.00304378  .00003233  00000-0  22105-3 0  9994,2 53154  53.2167  71.5178 0001077  91.1646 268.9469 15.08851952 59827,6917.844,95.437,540.454,538.964,0.0
53154.0,STARLINK-4077,PAYLOAD,2023-08-11 06:25:55,15.0884258,0.0001017,53.217,70.3294,82.5388,277.572,0.00017179,2.447e-05,0.0,0 STARLINK-4077,1 53154U 22083Y   23223.26800829  .00002447  00000-0  17179-3 0  9995,2 53154  53.2170  70.3294 0001017  82.5388 277.5720 15.08842580 59865,6917.873,95.437,540.441,539.034,0.0
53154.0,STARLINK-4077,PAYLOAD,2023-08-12 06:16:42,15.0884204,0.0001093,53.2175,65.8664,82.7839,277.3278,0.00012579,1.715e-05,0.0,0 STARLINK-4077,1 53154U 22083Y   23224.26160872  .00001715  00000-0  12579-3 0  9999,2 53154  53.2175  65.8664 0001093  82.7839 277.3278 15.08842040 60013,6917.874,95.437,540.495,538.983,0.0
53154.0,STARLINK-4077,PAYLOAD,2023-08-13 06:07:30,15.0883885,0.0001094,53.2172,61.4078,90.163,269.9488,0.00014027,1.945e-05,0.0,0 STARLINK-4077,1 53154U 22083Y   23225.25521205  .00001945  00000-0  14027-3 0  9995,2 53154  53.2172  61.4078 0001094  90.1630 269.9488 15.08838850 60164,6917.884,95.438,540.506,538.992,0.0
53154.0,STARLINK-4077,PAYLOAD,2023-08-14 12:19:50,15.08840441,9.66e-05,53.2168,55.7589,88.743,271.3673,0.00014604,2.037e-05,0.0,0 STARLINK-4077,1 53154U 22083Y   23226.51377429  .00002037  00000-0  14604-3 0  9996,2 53154  53.2168  55.7589 0000966  88.7430 271.3673 15.08840441 60353,6917.879,95.438,540.412,539.076,0.0
53154.0,STARLINK-4077,PAYLOAD,2023-08-15 18:32:10,15.08834598,9.55e-05,53.2174,50.1076,89.5714,270.5388,0.00025583,3.786e-05,0.0,0 STARLINK-4077,1 53154U 22083Y   23227.77233805  .00003786  00000-0  25583-3 0  9994,2 53154  53.2174  50.1076 0000955  89.5714 270.5388 15.08834598 60543,6917.897,95.438,540.423,539.101,0.0
53154.0,STARLINK-4077,PAYLOAD,2023-08-16 21:33:42,15.08844792,0.000115,53.2164,45.0519,85.4402,274.6722,7.5519e-05,9.14e-06,0.0,0 STARLINK-4077,1 53154U 22083Y   23228.89841290  .00000914  00000-0  75519-4 0  9996,2 53154  53.2164  45.0519 0001150  85.4402 274.6722 15.08844792 60717,6917.866,95.437,540.526,538.935,0.0
53154.0,STARLINK-4077,PAYLOAD,2023-08-18 06:56:48,15.088411,0.0001294,53.2165,38.8079,90.0052,270.1089,0.00010182,1.333e-05,0.0,0 STARLINK-4077,1 53154U 22083Y   23230.28945399  .00001333  00000-0  10182-3 0  9997,2 53154  53.2165  38.8079 0001294  90.0052 270.1089 15.08841100 60921,6917.877,95.437,540.637,538.847,0.0
53154.0,STARLINK-4077,PAYLOAD,2023-08-18 18:04:31,15.0883631,0.0001103,53.2172,36.7261,91.6333,268.4786,5.2949e-05,5.55e-06,0.0,0 STARLINK-4077,1 53154U 22083Y   23230.75313838  .00000555  00000-0  52949-4 0  9999,2 53154  53.2172  36.7261 0001103  91.6333 268.4786 15.08836310 60995,6917.892,95.438,540.52,538.994,0.0
53154.0,STARLINK-4077,PAYLOAD,2023-08-20 09:49:09,15.08834891,0.0001212,53.2174,29.2925,97.4846,262.6284,0.00012389,1.684e-05,0.0,0 STARLINK-4077,1 53154U 22083Y   23232.40914042  .00001684  00000-0  12389-3 0  9994,2 53154  53.2174  29.2925 0001212  97.4846 262.6284 15.08834891 61245,6917.896,95.438,540.599,538.923,0.0
53154.0,STARLINK-4077,PAYLOAD,2023-08-21 17:36:52,15.08843182,0.0001067,53.2181,23.3453,88.1644,271.947,9.9441e-05,1.295e-05,0.0,0 STARLINK-4077,1 53154U 22083Y   23233.73393893  .00001295  00000-0  99441-4 0  9999,2 53154  53.2181  23.3453 0001067  88.1644 271.9470 15.08843182 61440,6917.871,95.437,540.474,538.998,0.0
53154.0,STARLINK-4077,PAYLOAD,2023-08-22 09:30:44,15.08836525,0.0001119,53.2185,20.3724,68.2015,291.9096,2.6381e-05,1.32e-06,0.0,0 STARLINK-4077,1 53154U 22083Y   23234.39634686  .00000132  00000-0  26381-4 0  9992,2 53154  53.2185  20.3724 0001119  68.2015 291.9096 15.08836525 61541,6917.891,95.438,540.53,538.982,0.0
53154.0,STARLINK-4077,PAYLOAD,2023-08-24 12:23:04,15.08840727,0.0001021,53.2196,10.8587,75.9587,284.1519,5.7838e-05,6.33e-06,0.0,0 STARLINK-4077,1 53154U 22083Y   23236.51602271  .00000633  00000-0  57838-4 0  9990,2 53154  53.2196  10.8587 0001021  75.9587 284.1519 15.08840727 61234,6917.878,95.438,540.449,539.037,0.0
53154.0,STARLINK-4077,PAYLOAD,2023-08-25 13:49:14,15.08839997,0.0001186,53.2185,6.1006,69.9423,290.1696,2.7454e-05,1.49e-06,0.0,0 STARLINK-4077,1 53154U 22083Y   23237.57586456  .00000149  00000-0  27454-4 0  9996,2 53154  53.2185   6.1006 0001186  69.9423 290.1696 15.08839997 61397,6917.88,95.438,540.566,538.925,0.0
53154.0,STARLINK-4077,PAYLOAD,2023-08-25 18:35:23,15.08845125,0.0001139,53.2183,5.207,91.1262,268.9861,6.0964e-05,6.83e-06,0.0,0 STARLINK-4077,1 53154U 22083Y   23237.77457911  .00000683  00000-0  60964-4 0  9997,2 53154  53.2183   5.2070 0001139  91.1262 268.9861 15.08845125 62053,6917.865,95.437,540.518,538.942,0.0
53154.0,STARLINK-4077,PAYLOAD,2023-08-26 08:53:52,15.08836188,0.0001228,53.2183,2.5282,117.7477,242.364,-7.2844e-06,-4.04e-06,0.0,0 STARLINK-4077,1 53154U 22083Y   23238.37074646 -.00000404  00000-0 -72844-5 0  9998,2 53154  53.2183   2.5282 0001228 117.7477 242.3640 15.08836188 62140,6917.892,95.438,540.607,538.908,0.0
53154.0,STARLINK-4077,PAYLOAD,2023-08-26 13:40:01,15.08841413,0.000125,53.2178,1.6373,107.2347,252.8782,6.7217e-05,7.82e-06,0.0,0 STARLINK-4077,1 53154U 22083Y   23238.56946187  .00000782  00000-0  67217-4 0  9991,2 53154  53.2178   1.6373 0001250 107.2347 252.8782 15.08841413 61543,6917.876,95.437,540.606,538.876,0.0
53154.0,STARLINK-4077,PAYLOAD,2023-08-26 15:15:24,15.08842691,0.0001189,53.2182,1.3415,91.3927,268.7201,8.6654e-05,1.092e-05,0.0,0 STARLINK-4077,1 53154U 22083Y   23238.63570144  .00001092  00000-0  86654-4 0  9996,2 53154  53.2182   1.3415 0001189  91.3927 268.7201 15.08842691 62182,6917.872,95.437,540.56,538.915,0.0
53154.0,STARLINK-4077,PAYLOAD,2023-08-27 08:44:39,15.08864346,0.0001119,53.2179,358.0699,94.9273,265.1847,-0.00035413,-5.923e-05,0.0,0 STARLINK-4077,1 53154U 22083Y   23239.36434762 -.00005923  00000-0 -35413-3 0  9997,2 53154  53.2179 358.0699 0001119  94.9273 265.1847 15.08864346 61660,6917.806,95.436,540.445,538.897,0.0
53154.0,STARLINK-4077,PAYLOAD,2023-08-27 15:06:12,15.08840446,0.0001207,53.2186,356.8791,92.4795,267.6336,3.8489e-05,3.25e-06,0.0,0 STARLINK-4077,1 53154U 22083Y   23239.62930597  .00000325  00000-0  38489-4 0  9999,2 53154  53.2186 356.8791 0001207  92.4795 267.6336 15.08840446 62337,6917.879,95.438,540.579,538.909,0.0
53154.0,STARLINK-4077,PAYLOAD,2023-08-28 16:32:22,15.08842983,0.0001319,53.2185,352.1187,92.5812,267.5331,7.3398e-05,8.81e-06,0.0,0 STARLINK-4077,1 53154U 22083Y   23240.68914598  .00000881  00000-0  73398-4 0  9995,2 53154  53.2185 352.1187 0001319  92.5812 267.5331 15.08842983 62498,6917.871,95.437,540.649,538.824,0.0
53154.0,STARLINK-4077,PAYLOAD,2023-08-29 14:47:45,15.08844927,0.0001259,53.2186,347.9572,86.1041,274.0095,0.00011877,1.603e-05,0.0,0 STARLINK-4077,1 53154U 22083Y   23241.61650416  .00001603  00000-0  11877-3 0  9991,2 53154  53.2186 347.9572 0001259  86.1041 274.0095 15.08844927 62002,6917.865,95.437,540.601,538.859,0.0
53154.0,STARLINK-4077,PAYLOAD,2023-08-30 06:41:37,15.08843748,0.0001266,53.2175,344.9866,78.6138,281.4996,2.2816e-05,7.5e-07,0.0,0 STARLINK-4077,1 53154U 22083Y   23242.27890808  .00000075  00000-0  22816-4 0  9993,2 53154  53.2175 344.9866 0001266  78.6138 281.4996 15.08843748 62736,6917.869,95.437,540.61,538.858,0.0
53154.0,STARLINK-4077,PAYLOAD,2023-08-30 14:38:32,15.08849154,0.0001401,53.2183,343.5007,76.5063,283.6085,5.9843e-05,6.65e-06,0.0,0 STARLINK-4077,1 53154U 22083Y   23242.61010269  .00000665  00000-0  59843-4 0  9991,2 53154  53.2183 343.5007 0001401  76.5063 283.6085 15.08849154 62158,6917.852,95.437,540.687,538.748,0.0
53154.0,STARLINK-4077,PAYLOAD,2023-08-31 06:32:24,15.08839753,0.0001025,53.2192,340.529,75.244,284.8666,5.2435e-05,5.47e-06,0.0,0 STARLINK-4077,1 53154U 22083Y   23243.27250638  .00000547  00000-0  52435-4 0  9999,2 53154  53.2192 340.5290 0001025  75.2440 284.8666 15.08839753 62888,6917.881,95.438,540.455,539.037,0.0
53154.0,STARLINK-4077,PAYLOAD,2023-08-31 14:29:19,15.08846588,0.0001261,53.2182,339.0371,98.0336,262.0799,-9.9869e-07,-3.04e-06,0.0,0 STARLINK-4077,1 53154U 22083Y   23243.60370340 -.00000304  00000-0 -99869-6 0  9996,2 53154  53.2182 339.0371 0001261  98.0336 262.0799 15.08846588 62305,6917.86,95.437,540.598,538.853,0.0
